[Satellite]
VERSION=1.1
NAME=FLOCK 1B-2
NICKNAME=FLOCK 1B-2
TLE1=1 40132U 98067FB  15055.44839603  .00358622  60894-4  98421-3 0  9997
TLE2=2 40132  51.6211 267.2143 0000300 288.7178 138.4989 15.93471568 29223
